EARTHCARE               
1 59908U 24101A   24298.34909147  .00028788  00000+0  39954-3 0  9996
2 59908  96.9931  63.3202 0001369  94.5039 265.6373 15.56996018 23079
